[{"OBJECT_NAME":"STARLINK-35902","OBJECT_ID":"2025-271K","EPOCH":"2026-03-09T11:58:07.254048","MEAN_MOTION":15.30186455,"ECCENTRICITY":0.00010574,"INCLINATION":53.1576,"RA_OF_ASC_NODE":141.0933,"ARG_OF_PERICENTER":68.9225,"MEAN_ANOMALY":291.1889,"EPHEMERIS_TYPE":0,"CLASSIFICATION_TYPE":"U","NORAD_CAT_ID":66626,"ELEMENT_SET_NO":999,"REV_AT_EPOCH":1753,"BSTAR":0.00076116393,"MEAN_MOTION_DOT":0.00022242,"MEAN_MOTION_DDOT":0},{"OBJECT_NAME":"AIST-2 (RS43)","OBJECT_ID":"2013-015D","EPOCH":"2026-03-09T22:52:25.813056","MEAN_MOTION":15.25079544,"ECCENTRICITY":0.00239979,"INCLINATION":64.8687,"RA_OF_ASC_NODE":221.5348,"ARG_OF_PERICENTER":248.8384,"MEAN_ANOMALY":111.0181,"EPHEMERIS_TYPE":0,"CLASSIFICATION_TYPE":"U","NORAD_CAT_ID":39133,"ELEMENT_SET_NO":999,"REV_AT_EPOCH":70876,"BSTAR":0.00037899099,"MEAN_MOTION_DOT":9.402e-5,"MEAN_MOTION_DDOT":0}]
